CCSDS_OMM_VERS = 2.0
CREATION_DATE  = 
ORIGINATOR     = 

OBJECT_NAME    = ARIANE 5 R/B
OBJECT_ID      = 2004-049H
CENTER_NAME    = EARTH
REF_FRAME      = TEME
TIME_SYSTEM    = UTC
MEAN_ELEMENT_THEORY = SGP/SGP4

EPOCH          = 2025-11-19T04:53:21.756192
MEAN_MOTION    = 14.84941072
ECCENTRICITY   = .00844496
INCLINATION    = 98.2518
RA_OF_ASC_NODE = 122.6440
ARG_OF_PERICENTER = 350.0117
MEAN_ANOMALY   = 9.9415

EPHEMERIS_TYPE = 0
CLASSIFICATION_TYPE = U
NORAD_CAT_ID   = 28499
ELEMENT_SET_NO = 999
REV_AT_EPOCH   = 12939
BSTAR          = .12524319E-3
MEAN_MOTION_DOT = .1071E-4
MEAN_MOTION_DDOT = 0

CCSDS_OMM_VERS = 2.0
CREATION_DATE  = 
ORIGINATOR     = 

OBJECT_NAME    = CZ-2D R/B
OBJECT_ID      = 2005-024B
CENTER_NAME    = EARTH
REF_FRAME      = TEME
TIME_SYSTEM    = UTC
MEAN_ELEMENT_THEORY = SGP/SGP4

EPOCH          = 2025-11-19T06:12:14.881248
MEAN_MOTION    = 15.51667635
ECCENTRICITY   = .00081038
INCLINATION    = 97.3647
RA_OF_ASC_NODE = 330.1175
ARG_OF_PERICENTER = 73.3827
MEAN_ANOMALY   = 286.8315

EPHEMERIS_TYPE = 0
CLASSIFICATION_TYPE = U
NORAD_CAT_ID   = 28738
ELEMENT_SET_NO = 999
REV_AT_EPOCH   = 12261
BSTAR          = .43840331E-3
MEAN_MOTION_DOT = .26047E-3
MEAN_MOTION_DDOT = 0

CCSDS_OMM_VERS = 2.0
CREATION_DATE  = 
ORIGINATOR     = 

OBJECT_NAME    = ALOS (DAICHI)
OBJECT_ID      = 2006-002A
CENTER_NAME    = EARTH
REF_FRAME      = TEME
TIME_SYSTEM    = UTC
MEAN_ELEMENT_THEORY = SGP/SGP4

EPOCH          = 2025-11-19T03:14:05.298720
MEAN_MOTION    = 14.69382040
ECCENTRICITY   = .00007998
INCLINATION    = 98.1052
RA_OF_ASC_NODE = 274.7950
ARG_OF_PERICENTER = 60.4635
MEAN_ANOMALY   = 299.6650

EPHEMERIS_TYPE = 0
CLASSIFICATION_TYPE = U
NORAD_CAT_ID   = 28931
ELEMENT_SET_NO = 999
REV_AT_EPOCH   = 5724
BSTAR          = .31846446E-3
MEAN_MOTION_DOT = .1834E-4
MEAN_MOTION_DDOT = 0

CCSDS_OMM_VERS = 2.0
CREATION_DATE  = 
ORIGINATOR     = 

OBJECT_NAME    = H-2A R/B
OBJECT_ID      = 2006-002B
CENTER_NAME    = EARTH
REF_FRAME      = TEME
TIME_SYSTEM    = UTC
MEAN_ELEMENT_THEORY = SGP/SGP4

EPOCH          = 2025-11-19T06:14:38.253408
MEAN_MOTION    = 15.13924705
ECCENTRICITY   = .00545061
INCLINATION    = 98.2304
RA_OF_ASC_NODE = 96.1059
ARG_OF_PERICENTER = 256.6442
MEAN_ANOMALY   = 102.8707

EPHEMERIS_TYPE = 0
CLASSIFICATION_TYPE = U
NORAD_CAT_ID   = 28932
ELEMENT_SET_NO = 999
REV_AT_EPOCH   = 7771
BSTAR          = .58036697E-3
MEAN_MOTION_DOT = .10835E-3
MEAN_MOTION_DDOT = 0

CCSDS_OMM_VERS = 2.0
CREATION_DATE  = 
ORIGINATOR     = 

OBJECT_NAME    = RESURS-DK 1
OBJECT_ID      = 2006-021A
CENTER_NAME    = EARTH
REF_FRAME      = TEME
TIME_SYSTEM    = UTC
MEAN_ELEMENT_THEORY = SGP/SGP4

EPOCH          = 2025-11-19T06:42:38.287584
MEAN_MOTION    = 15.11971289
ECCENTRICITY   = .00071579
INCLINATION    = 69.9309
RA_OF_ASC_NODE = 162.4573
ARG_OF_PERICENTER = 278.8956
MEAN_ANOMALY   = 81.1399

EPHEMERIS_TYPE = 0
CLASSIFICATION_TYPE = U
NORAD_CAT_ID   = 29228
ELEMENT_SET_NO = 999
REV_AT_EPOCH   = 7083
BSTAR          = .15744614E-3
MEAN_MOTION_DOT = .2602E-4
MEAN_MOTION_DDOT = 0

CCSDS_OMM_VERS = 2.0
CREATION_DATE  = 
ORIGINATOR     = 

OBJECT_NAME    = CZ-4B R/B
OBJECT_ID      = 2006-046C
CENTER_NAME    = EARTH
REF_FRAME      = TEME
TIME_SYSTEM    = UTC
MEAN_ELEMENT_THEORY = SGP/SGP4

EPOCH          = 2025-11-19T03:13:48.993312
MEAN_MOTION    = 15.15543601
ECCENTRICITY   = .00328192
INCLINATION    = 97.5771
RA_OF_ASC_NODE = 3.3386
ARG_OF_PERICENTER = 291.4303
MEAN_ANOMALY   = 68.3430

EPHEMERIS_TYPE = 0
CLASSIFICATION_TYPE = U
NORAD_CAT_ID   = 29507
ELEMENT_SET_NO = 999
REV_AT_EPOCH   = 4329
BSTAR          = .29543848E-3
MEAN_MOTION_DOT = .5607E-4
MEAN_MOTION_DDOT = 0

CCSDS_OMM_VERS = 2.0
CREATION_DATE  = 
ORIGINATOR     = 

OBJECT_NAME    = CZ-2C R/B
OBJECT_ID      = 2007-010B
CENTER_NAME    = EARTH
REF_FRAME      = TEME
TIME_SYSTEM    = UTC
MEAN_ELEMENT_THEORY = SGP/SGP4

EPOCH          = 2025-11-19T06:11:21.938784
MEAN_MOTION    = 14.20195786
ECCENTRICITY   = .00579485
INCLINATION    = 98.3967
RA_OF_ASC_NODE = 77.0918
ARG_OF_PERICENTER = 254.9731
MEAN_ANOMALY   = 104.5029

EPHEMERIS_TYPE = 0
CLASSIFICATION_TYPE = U
NORAD_CAT_ID   = 31114
ELEMENT_SET_NO = 999
REV_AT_EPOCH   = 96404
BSTAR          = .10567854E-3
MEAN_MOTION_DOT = .188E-5
MEAN_MOTION_DDOT = 0

CCSDS_OMM_VERS = 2.0
CREATION_DATE  = 
ORIGINATOR     = 

OBJECT_NAME    = COSMO-SKYMED 1
OBJECT_ID      = 2007-023A
CENTER_NAME    = EARTH
REF_FRAME      = TEME
TIME_SYSTEM    = UTC
MEAN_ELEMENT_THEORY = SGP/SGP4

EPOCH          = 2025-11-19T07:19:46.292160
MEAN_MOTION    = 14.95523542
ECCENTRICITY   = .00010413
INCLINATION    = 97.8839
RA_OF_ASC_NODE = 148.5547
ARG_OF_PERICENTER = 82.0708
MEAN_ANOMALY   = 278.0631

EPHEMERIS_TYPE = 0
CLASSIFICATION_TYPE = U
NORAD_CAT_ID   = 31598
ELEMENT_SET_NO = 999
REV_AT_EPOCH   = 99839
BSTAR          = .40510119E-3
MEAN_MOTION_DOT = .443E-4
MEAN_MOTION_DDOT = 0

CCSDS_OMM_VERS = 2.0
CREATION_DATE  = 
ORIGINATOR     = 

OBJECT_NAME    = COSMOS 2428
OBJECT_ID      = 2007-029A
CENTER_NAME    = EARTH
REF_FRAME      = TEME
TIME_SYSTEM    = UTC
MEAN_ELEMENT_THEORY = SGP/SGP4

EPOCH          = 2025-11-19T00:30:18.534240
MEAN_MOTION    = 14.12887771
ECCENTRICITY   = .00024285
INCLINATION    = 70.9369
RA_OF_ASC_NODE = 75.6756
ARG_OF_PERICENTER = 64.0475
MEAN_ANOMALY   = 296.0896

EPHEMERIS_TYPE = 0
CLASSIFICATION_TYPE = U
NORAD_CAT_ID   = 31792
ELEMENT_SET_NO = 999
REV_AT_EPOCH   = 94846
BSTAR          = -.72257713E-4
MEAN_MOTION_DOT = -.182E-5
MEAN_MOTION_DDOT = 0

CCSDS_OMM_VERS = 2.0
CREATION_DATE  = 
ORIGINATOR     = 

OBJECT_NAME    = SL-16 R/B
OBJECT_ID      = 2007-029B
CENTER_NAME    = EARTH
REF_FRAME      = TEME
TIME_SYSTEM    = UTC
MEAN_ELEMENT_THEORY = SGP/SGP4

EPOCH          = 2025-11-19T06:28:13.664640
MEAN_MOTION    = 14.14814738
ECCENTRICITY   = .00022068
INCLINATION    = 70.9777
RA_OF_ASC_NODE = 44.4918
ARG_OF_PERICENTER = 262.6076
MEAN_ANOMALY   = 157.3127

EPHEMERIS_TYPE = 0
CLASSIFICATION_TYPE = U
NORAD_CAT_ID   = 31793
ELEMENT_SET_NO = 999
REV_AT_EPOCH   = 94975
BSTAR          = .15861489E-3
MEAN_MOTION_DOT = .258E-5
MEAN_MOTION_DDOT = 0

CCSDS_OMM_VERS = 2.0
CREATION_DATE  = 
ORIGINATOR     = 

OBJECT_NAME    = KORONAS-FOTON
OBJECT_ID      = 2009-003A
CENTER_NAME    = EARTH
REF_FRAME      = TEME
TIME_SYSTEM    = UTC
MEAN_ELEMENT_THEORY = SGP/SGP4

EPOCH          = 2025-11-19T05:52:52.820256
MEAN_MOTION    = 15.40478434
ECCENTRICITY   = .00115138
INCLINATION    = 82.4336
RA_OF_ASC_NODE = 30.4337
ARG_OF_PERICENTER = 187.7291
MEAN_ANOMALY   = 172.3779

EPHEMERIS_TYPE = 0
CLASSIFICATION_TYPE = U
NORAD_CAT_ID   = 33504
ELEMENT_SET_NO = 999
REV_AT_EPOCH   = 92872
BSTAR          = .30703806E-3
MEAN_MOTION_DOT = .12509E-3
MEAN_MOTION_DDOT = 0

CCSDS_OMM_VERS = 2.0
CREATION_DATE  = 
ORIGINATOR     = 

OBJECT_NAME    = CZ-2C R/B
OBJECT_ID      = 2011-030B
CENTER_NAME    = EARTH
REF_FRAME      = TEME
TIME_SYSTEM    = UTC
MEAN_ELEMENT_THEORY = SGP/SGP4

EPOCH          = 2025-11-19T03:17:45.100320
MEAN_MOTION    = 14.80783487
ECCENTRICITY   = .00528703
INCLINATION    = 97.8372
RA_OF_ASC_NODE = 277.7733
ARG_OF_PERICENTER = 351.9220
MEAN_ANOMALY   = 18.8984

EPHEMERIS_TYPE = 0
CLASSIFICATION_TYPE = U
NORAD_CAT_ID   = 37731
ELEMENT_SET_NO = 999
REV_AT_EPOCH   = 77373
BSTAR          = .25761235E-3
MEAN_MOTION_DOT = .1978E-4
MEAN_MOTION_DDOT = 0

