ARIANE 5 R/B            
1 28499U 04049H   25323.20372403  .00001071  00000+0  12524-3 0  9990
2 28499  98.2518 122.6440 0084449 350.0117   9.9415 14.84941072129394
CZ-2D R/B               
1 28738U 05024B   25323.25850557  .00026047  00000+0  43840-3 0  9991
2 28738  97.3647 330.1175 0008103  73.3827 286.8315 15.51667635122618
ALOS (DAICHI)           
1 28931U 06002A   25323.13478355  .00001834  00000+0  31846-3 0  9992
2 28931  98.1052 274.7950 0000799  60.4635 299.6650 14.69382040 57245
H-2A R/B                
1 28932U 06002B   25323.26016497  .00010835  00000+0  58037-3 0  9994
2 28932  98.2304  96.1059 0054506 256.6442 102.8707 15.13924705 77715
RESURS-DK 1             
1 29228U 06021A   25323.27960981  .00002602  00000+0  15745-3 0  9993
2 29228  69.9309 162.4573 0007157 278.8956  81.1399 15.11971289 70837
CZ-4B R/B               
1 29507U 06046C   25323.13459483  .00005607  00000+0  29544-3 0  9995
2 29507  97.5771   3.3386 0032819 291.4303  68.3430 15.15543601 43292
CZ-2C R/B               
1 31114U 07010B   25323.25789281  .00000188  00000+0  10568-3 0  9994
2 31114  98.3967  77.0918 0057948 254.9731 104.5029 14.20195786964047
COSMO-SKYMED 1          
1 31598U 07023A   25323.30539690  .00004430  00000+0  40510-3 0  9991
2 31598  97.8839 148.5547 0001041  82.0708 278.0631 14.95523542998392
COSMOS 2428             
1 31792U 07029A   25323.02104785 -.00000182  00000+0 -72258-4 0  9992
2 31792  70.9369  75.6756 0002428  64.0475 296.0896 14.12887771948463
SL-16 R/B               
1 31793U 07029B   25323.26960260  .00000258  00000+0  15861-3 0  9995
2 31793  70.9777  44.4918 0002206 262.6076 157.3127 14.14814738949752
KORONAS-FOTON           
1 33504U 09003A   25323.24505579  .00012509  00000+0  30704-3 0  9992
2 33504  82.4336  30.4337 0011513 187.7291 172.3779 15.40478434928723
CZ-2C R/B               
1 37731U 11030B   25323.13732755  .00001978  00000+0  25761-3 0  9992
2 37731  97.8372 277.7733 0052870 351.9220  18.8984 14.80783487773734
